CCSDS_OMM_VERS = 2.0
CREATION_DATE  = 
ORIGINATOR     = 

OBJECT_NAME    = SL-16 R/B
OBJECT_ID      = 1998-043G
CENTER_NAME    = EARTH
REF_FRAME      = TEME
TIME_SYSTEM    = UTC
MEAN_ELEMENT_THEORY = SGP/SGP4

EPOCH          = 2025-12-17T10:18:06.870816
MEAN_MOTION    = 14.26026761
ECCENTRICITY   = .0008804
INCLINATION    = 98.8131
RA_OF_ASC_NODE = 299.2736
ARG_OF_PERICENTER = 251.5110
MEAN_ANOMALY   = 108.5113

EPHEMERIS_TYPE = 0
CLASSIFICATION_TYPE = U
NORAD_CAT_ID   = 25400
ELEMENT_SET_NO = 999
REV_AT_EPOCH   = 42726
BSTAR          = .39668088E-4
MEAN_MOTION_DOT = .49E-6
MEAN_MOTION_DDOT = 0

CCSDS_OMM_VERS = 2.0
CREATION_DATE  = 
ORIGINATOR     = 

OBJECT_NAME    = SL-16 R/B
OBJECT_ID      = 1998-045B
CENTER_NAME    = EARTH
REF_FRAME      = TEME
TIME_SYSTEM    = UTC
MEAN_ELEMENT_THEORY = SGP/SGP4

EPOCH          = 2025-12-17T10:14:13.694496
MEAN_MOTION    = 14.16174547
ECCENTRICITY   = .00066726
INCLINATION    = 71.0115
RA_OF_ASC_NODE = 354.5703
ARG_OF_PERICENTER = 169.4908
MEAN_ANOMALY   = 190.6357

EPHEMERIS_TYPE = 0
CLASSIFICATION_TYPE = U
NORAD_CAT_ID   = 25407
ELEMENT_SET_NO = 999
REV_AT_EPOCH   = 41545
BSTAR          = .17962527E-4
MEAN_MOTION_DOT = -.12E-6
MEAN_MOTION_DDOT = 0

CCSDS_OMM_VERS = 2.0
CREATION_DATE  = 
ORIGINATOR     = 

OBJECT_NAME    = ISS (ZARYA)
OBJECT_ID      = 1998-067A
CENTER_NAME    = EARTH
REF_FRAME      = TEME
TIME_SYSTEM    = UTC
MEAN_ELEMENT_THEORY = SGP/SGP4

EPOCH          = 2025-12-17T13:42:43.375968
MEAN_MOTION    = 15.49636687
ECCENTRICITY   = .00031828
INCLINATION    = 51.6310
RA_OF_ASC_NODE = 118.5527
ARG_OF_PERICENTER = 262.6214
MEAN_ANOMALY   = 97.4413

EPHEMERIS_TYPE = 0
CLASSIFICATION_TYPE = U
NORAD_CAT_ID   = 25544
ELEMENT_SET_NO = 999
REV_AT_EPOCH   = 54360
BSTAR          = .14273627E-3
MEAN_MOTION_DOT = .7597E-4
MEAN_MOTION_DDOT = 0

CCSDS_OMM_VERS = 2.0
CREATION_DATE  = 
ORIGINATOR     = 

OBJECT_NAME    = CZ-4B R/B
OBJECT_ID      = 1999-025C
CENTER_NAME    = EARTH
REF_FRAME      = TEME
TIME_SYSTEM    = UTC
MEAN_ELEMENT_THEORY = SGP/SGP4

EPOCH          = 2025-12-17T15:02:59.007840
MEAN_MOTION    = 14.18244858
ECCENTRICITY   = .00364733
INCLINATION    = 98.6763
RA_OF_ASC_NODE = 32.7977
ARG_OF_PERICENTER = 219.6427
MEAN_ANOMALY   = 252.3729

EPHEMERIS_TYPE = 0
CLASSIFICATION_TYPE = U
NORAD_CAT_ID   = 25732
ELEMENT_SET_NO = 999
REV_AT_EPOCH   = 37653
BSTAR          = .53699064E-4
MEAN_MOTION_DOT = .68E-6
MEAN_MOTION_DDOT = 0

CCSDS_OMM_VERS = 2.0
CREATION_DATE  = 
ORIGINATOR     = 

OBJECT_NAME    = OKEAN-O
OBJECT_ID      = 1999-039A
CENTER_NAME    = EARTH
REF_FRAME      = TEME
TIME_SYSTEM    = UTC
MEAN_ELEMENT_THEORY = SGP/SGP4

EPOCH          = 2025-12-17T14:08:31.142112
MEAN_MOTION    = 14.80169992
ECCENTRICITY   = .00009172
INCLINATION    = 97.9599
RA_OF_ASC_NODE = 47.2490
ARG_OF_PERICENTER = 107.4419
MEAN_ANOMALY   = 252.6893

EPHEMERIS_TYPE = 0
CLASSIFICATION_TYPE = U
NORAD_CAT_ID   = 25860
ELEMENT_SET_NO = 999
REV_AT_EPOCH   = 42224
BSTAR          = .93120206E-4
MEAN_MOTION_DOT = .655E-5
MEAN_MOTION_DDOT = 0

CCSDS_OMM_VERS = 2.0
CREATION_DATE  = 
ORIGINATOR     = 

OBJECT_NAME    = SL-16 R/B
OBJECT_ID      = 1999-039B
CENTER_NAME    = EARTH
REF_FRAME      = TEME
TIME_SYSTEM    = UTC
MEAN_ELEMENT_THEORY = SGP/SGP4

EPOCH          = 2025-12-17T15:31:59.297376
MEAN_MOTION    = 14.81593624
ECCENTRICITY   = .00153037
INCLINATION    = 98.0121
RA_OF_ASC_NODE = 45.7987
ARG_OF_PERICENTER = 158.9731
MEAN_ANOMALY   = 201.2114

EPHEMERIS_TYPE = 0
CLASSIFICATION_TYPE = U
NORAD_CAT_ID   = 25861
ELEMENT_SET_NO = 999
REV_AT_EPOCH   = 42471
BSTAR          = .70673249E-4
MEAN_MOTION_DOT = .502E-5
MEAN_MOTION_DDOT = 0

CCSDS_OMM_VERS = 2.0
CREATION_DATE  = 
ORIGINATOR     = 

OBJECT_NAME    = DELTA 2 R/B
OBJECT_ID      = 1999-041E
CENTER_NAME    = EARTH
REF_FRAME      = TEME
TIME_SYSTEM    = UTC
MEAN_ELEMENT_THEORY = SGP/SGP4

EPOCH          = 2025-12-17T04:11:31.377408
MEAN_MOTION    = 14.11413152
ECCENTRICITY   = .05046078
INCLINATION    = 51.7615
RA_OF_ASC_NODE = 270.7424
ARG_OF_PERICENTER = 104.8388
MEAN_ANOMALY   = 260.8984

EPHEMERIS_TYPE = 0
CLASSIFICATION_TYPE = U
NORAD_CAT_ID   = 25876
ELEMENT_SET_NO = 999
REV_AT_EPOCH   = 35137
BSTAR          = .19765603E-3
MEAN_MOTION_DOT = .98E-5
MEAN_MOTION_DDOT = 0

CCSDS_OMM_VERS = 2.0
CREATION_DATE  = 
ORIGINATOR     = 

OBJECT_NAME    = HELIOS 1B
OBJECT_ID      = 1999-064A
CENTER_NAME    = EARTH
REF_FRAME      = TEME
TIME_SYSTEM    = UTC
MEAN_ELEMENT_THEORY = SGP/SGP4

EPOCH          = 2025-12-17T15:32:18.391776
MEAN_MOTION    = 14.87301929
ECCENTRICITY   = .0001468
INCLINATION    = 98.1757
RA_OF_ASC_NODE = 246.4586
ARG_OF_PERICENTER = 37.3342
MEAN_ANOMALY   = 322.7974

EPHEMERIS_TYPE = 0
CLASSIFICATION_TYPE = U
NORAD_CAT_ID   = 25977
ELEMENT_SET_NO = 999
REV_AT_EPOCH   = 67306
BSTAR          = .17835354E-3
MEAN_MOTION_DOT = .1551E-4
MEAN_MOTION_DDOT = 0

CCSDS_OMM_VERS = 2.0
CREATION_DATE  = 
ORIGINATOR     = 

OBJECT_NAME    = TERRA
OBJECT_ID      = 1999-068A
CENTER_NAME    = EARTH
REF_FRAME      = TEME
TIME_SYSTEM    = UTC
MEAN_ELEMENT_THEORY = SGP/SGP4

EPOCH          = 2025-12-17T14:47:06.904032
MEAN_MOTION    = 14.60907456
ECCENTRICITY   = .00035802
INCLINATION    = 97.9743
RA_OF_ASC_NODE = 43.1215
ARG_OF_PERICENTER = 85.0056
MEAN_ANOMALY   = 76.0683

EPHEMERIS_TYPE = 0
CLASSIFICATION_TYPE = U
NORAD_CAT_ID   = 25994
ELEMENT_SET_NO = 999
REV_AT_EPOCH   = 38309
BSTAR          = .93061721E-4
MEAN_MOTION_DOT = .411E-5
MEAN_MOTION_DDOT = 0

CCSDS_OMM_VERS = 2.0
CREATION_DATE  = 
ORIGINATOR     = 

OBJECT_NAME    = SL-16 R/B
OBJECT_ID      = 2000-006B
CENTER_NAME    = EARTH
REF_FRAME      = TEME
TIME_SYSTEM    = UTC
MEAN_ELEMENT_THEORY = SGP/SGP4

EPOCH          = 2025-12-17T11:47:23.174016
MEAN_MOTION    = 14.15809170
ECCENTRICITY   = .00185772
INCLINATION    = 71.0023
RA_OF_ASC_NODE = 270.6670
ARG_OF_PERICENTER = 302.2568
MEAN_ANOMALY   = 57.6754

EPHEMERIS_TYPE = 0
CLASSIFICATION_TYPE = U
NORAD_CAT_ID   = 26070
ELEMENT_SET_NO = 999
REV_AT_EPOCH   = 33692
BSTAR          = -.98036609E-4
MEAN_MOTION_DOT = -.241E-5
MEAN_MOTION_DDOT = 0

CCSDS_OMM_VERS = 2.0
CREATION_DATE  = 
ORIGINATOR     = 

OBJECT_NAME    = TITAN 4B R/B
OBJECT_ID      = 2000-047B
CENTER_NAME    = EARTH
REF_FRAME      = TEME
TIME_SYSTEM    = UTC
MEAN_ELEMENT_THEORY = SGP/SGP4

EPOCH          = 2025-12-17T12:23:03.737472
MEAN_MOTION    = 15.08816482
ECCENTRICITY   = .00385892
INCLINATION    = 67.9898
RA_OF_ASC_NODE = 271.4404
ARG_OF_PERICENTER = 138.8077
MEAN_ANOMALY   = 221.5996

EPHEMERIS_TYPE = 0
CLASSIFICATION_TYPE = U
NORAD_CAT_ID   = 26474
ELEMENT_SET_NO = 999
REV_AT_EPOCH   = 38051
BSTAR          = .17883933E-3
MEAN_MOTION_DOT = .2732E-4
MEAN_MOTION_DDOT = 0

CCSDS_OMM_VERS = 2.0
CREATION_DATE  = 
ORIGINATOR     = 

OBJECT_NAME    = ENVISAT
OBJECT_ID      = 2002-009A
CENTER_NAME    = EARTH
REF_FRAME      = TEME
TIME_SYSTEM    = UTC
MEAN_ELEMENT_THEORY = SGP/SGP4

EPOCH          = 2025-12-17T12:06:19.164672
MEAN_MOTION    = 14.39000992
ECCENTRICITY   = .00011346
INCLINATION    = 98.3606
RA_OF_ASC_NODE = 302.1243
ARG_OF_PERICENTER = 84.5589
MEAN_ANOMALY   = 26.8443

EPHEMERIS_TYPE = 0
CLASSIFICATION_TYPE = U
NORAD_CAT_ID   = 27386
ELEMENT_SET_NO = 999
REV_AT_EPOCH   = 24735
BSTAR          = .44416182E-4
MEAN_MOTION_DOT = .94E-6
MEAN_MOTION_DDOT = 0

