SL-16 R/B               
1 25400U 98043G   25351.42924619  .00000049  00000+0  39668-4 0  9996
2 25400  98.8131 299.2736 0008804 251.5110 108.5113 14.26026761427261
SL-16 R/B               
1 25407U 98045B   25351.42654739 -.00000012  00000+0  17963-4 0  9993
2 25407  71.0115 354.5703 0006672 169.4908 190.6357 14.16174547415450
ISS (ZARYA)             
1 25544U 98067A   25351.57133537  .00007597  00000+0  14274-3 0  9998
2 25544  51.6310 118.5527 0003182 262.6214  97.4413 15.49636687543605
CZ-4B R/B               
1 25732U 99025C   25351.62707185  .00000068  00000+0  53699-4 0  9995
2 25732  98.6763  32.7977 0036473 219.6427 252.3729 14.18244858376538
OKEAN-O                 
1 25860U 99039A   25351.58924933  .00000655  00000+0  93120-4 0  9994
2 25860  97.9599  47.2490 0000917 107.4419 252.6893 14.80169992422248
SL-16 R/B               
1 25861U 99039B   25351.64721409  .00000502  00000+0  70673-4 0  9994
2 25861  98.0121  45.7987 0015303 158.9731 201.2114 14.81593624424713
DELTA 2 R/B             
1 25876U 99041E   25351.17466872  .00000980  00000+0  19766-3 0  9996
2 25876  51.7615 270.7424 0504607 104.8388 260.8984 14.11413152351374
HELIOS 1B               
1 25977U 99064A   25351.64743509  .00001551  00000+0  17835-3 0  9990
2 25977  98.1757 246.4586 0001468  37.3342 322.7974 14.87301929673065
TERRA                   
1 25994U 99068A   25351.61605213  .00000411  00000+0  93062-4 0  9990
2 25994  97.9743  43.1215 0003580  85.0056  76.0683 14.60907456383091
SL-16 R/B               
1 26070U 00006B   25351.49124044 -.00000241  00000+0 -98037-4 0  9994
2 26070  71.0023 270.6670 0018577 302.2568  57.6754 14.15809170336925
TITAN 4B R/B            
1 26474U 00047B   25351.51601548  .00002732  00000+0  17884-3 0  9994
2 26474  67.9898 271.4404 0038589 138.8077 221.5996 15.08816482380515
ENVISAT                 
1 27386U 02009A   25351.50438848  .00000094  00000+0  44416-4 0  9998
2 27386  98.3606 302.1243 0001134  84.5589  26.8443 14.39000992247358
